[{"OBJECT_NAME":"ONEWEB-0422","OBJECT_ID":"2022-012E","EPOCH":"2025-09-19T23:17:37.692960","MEAN_MOTION":13.1764766,"ECCENTRICITY":9.933e-5,"INCLINATION":87.9059,"RA_OF_ASC_NODE":59.5906,"ARG_OF_PERICENTER":89.8142,"MEAN_ANOMALY":270.3104,"EPHEMERIS_TYPE":0,"CLASSIFICATION_TYPE":"U","NORAD_CAT_ID":51626,"ELEMENT_SET_NO":999,"REV_AT_EPOCH":17822,"BSTAR":3.5968709e-5,"MEAN_MOTION_DOT":2.7e-7,"MEAN_MOTION_DDOT":0},{"OBJECT_NAME":"ONEWEB-0423","OBJECT_ID":"2022-012F","EPOCH":"2025-09-19T23:07:54.116256","MEAN_MOTION":13.17646762,"ECCENTRICITY":0.00016606,"INCLINATION":87.9059,"RA_OF_ASC_NODE":59.6011,"ARG_OF_PERICENTER":88.5762,"MEAN_ANOMALY":271.556,"EPHEMERIS_TYPE":0,"CLASSIFICATION_TYPE":"U","NORAD_CAT_ID":51627,"ELEMENT_SET_NO":999,"REV_AT_EPOCH":17811,"BSTAR":3.2060404e-5,"MEAN_MOTION_DOT":2.5e-7,"MEAN_MOTION_DDOT":0},{"OBJECT_NAME":"ONEWEB-0425","OBJECT_ID":"2022-012G","EPOCH":"2025-09-19T22:54:53.511264","MEAN_MOTION":13.10375474,"ECCENTRICITY":0.00019435,"INCLINATION":87.8742,"RA_OF_ASC_NODE":90.1464,"ARG_OF_PERICENTER":80.2498,"MEAN_ANOMALY":279.8849,"EPHEMERIS_TYPE":0,"CLASSIFICATION_TYPE":"U","NORAD_CAT_ID":51628,"ELEMENT_SET_NO":999,"REV_AT_EPOCH":17393,"BSTAR":0.00011510004,"MEAN_MOTION_DOT":5.3e-7,"MEAN_MOTION_DDOT":0},{"OBJECT_NAME":"ONEWEB-0428","OBJECT_ID":"2022-012H","EPOCH":"2025-09-19T22:26:10.943232","MEAN_MOTION":13.10372186,"ECCENTRICITY":0.00014793,"INCLINATION":87.8737,"RA_OF_ASC_NODE":90.1717,"ARG_OF_PERICENTER":88.6638,"MEAN_ANOMALY":271.4659,"EPHEMERIS_TYPE":0,"CLASSIFICATION_TYPE":"U","NORAD_CAT_ID":51629,"ELEMENT_SET_NO":999,"REV_AT_EPOCH":17389,"BSTAR":-0.0016197939,"MEAN_MOTION_DOT":-5.53e-6,"MEAN_MOTION_DDOT":0},{"OBJECT_NAME":"ONEWEB-0431","OBJECT_ID":"2022-012J","EPOCH":"2025-09-19T23:32:57.545376","MEAN_MOTION":13.10372946,"ECCENTRICITY":0.00014643,"INCLINATION":87.8741,"RA_OF_ASC_NODE":90.135,"ARG_OF_PERICENTER":110.5363,"MEAN_ANOMALY":249.5922,"EPHEMERIS_TYPE":0,"CLASSIFICATION_TYPE":"U","NORAD_CAT_ID":51630,"ELEMENT_SET_NO":999,"REV_AT_EPOCH":17395,"BSTAR":0.0016892705,"MEAN_MOTION_DOT":6.02e-6,"MEAN_MOTION_DDOT":0},{"OBJECT_NAME":"ONEWEB-0434","OBJECT_ID":"2022-012K","EPOCH":"2025-09-19T22:59:40.936416","MEAN_MOTION":13.1037552,"ECCENTRICITY":0.00021566,"INCLINATION":87.8744,"RA_OF_ASC_NODE":90.1811,"ARG_OF_PERICENTER":74.5627,"MEAN_ANOMALY":285.5738,"EPHEMERIS_TYPE":0,"CLASSIFICATION_TYPE":"U","NORAD_CAT_ID":51631,"ELEMENT_SET_NO":999,"REV_AT_EPOCH":17393,"BSTAR":0.00054067879,"MEAN_MOTION_DOT":2.01e-6,"MEAN_MOTION_DDOT":0},{"OBJECT_NAME":"ONEWEB-0435","OBJECT_ID":"2022-012L","EPOCH":"2025-09-19T23:11:38.325120","MEAN_MOTION":13.10373581,"ECCENTRICITY":0.00012831,"INCLINATION":87.8739,"RA_OF_ASC_NODE":90.1711,"ARG_OF_PERICENTER":82.152,"MEAN_ANOMALY":277.9753,"EPHEMERIS_TYPE":0,"CLASSIFICATION_TYPE":"U","NORAD_CAT_ID":51632,"ELEMENT_SET_NO":999,"REV_AT_EPOCH":17392,"BSTAR":0.0016318021,"MEAN_MOTION_DOT":5.82e-6,"MEAN_MOTION_DDOT":0},{"OBJECT_NAME":"ONEWEB-0436","OBJECT_ID":"2022-012M","EPOCH":"2025-09-19T22:55:45.162048","MEAN_MOTION":13.17647051,"ECCENTRICITY":0.00014806,"INCLINATION":87.905,"RA_OF_ASC_NODE":59.5828,"ARG_OF_PERICENTER":96.881,"MEAN_ANOMALY":263.249,"EPHEMERIS_TYPE":0,"CLASSIFICATION_TYPE":"U","NORAD_CAT_ID":51633,"ELEMENT_SET_NO":999,"REV_AT_EPOCH":17809,"BSTAR":0.00016311361,"MEAN_MOTION_DOT":7.6e-7,"MEAN_MOTION_DDOT":0},{"OBJECT_NAME":"ONEWEB-0438","OBJECT_ID":"2022-012N","EPOCH":"2025-09-19T22:47:42.695808","MEAN_MOTION":13.10374999,"ECCENTRICITY":0.0001818,"INCLINATION":87.8741,"RA_OF_ASC_NODE":90.1751,"ARG_OF_PERICENTER":83.5837,"MEAN_ANOMALY":276.5497,"EPHEMERIS_TYPE":0,"CLASSIFICATION_TYPE":"U","NORAD_CAT_ID":51634,"ELEMENT_SET_NO":999,"REV_AT_EPOCH":17395,"BSTAR":-0.00066620627,"MEAN_MOTION_DOT":-2.2e-6,"MEAN_MOTION_DDOT":0},{"OBJECT_NAME":"ONEWEB-0439","OBJECT_ID":"2022-012P","EPOCH":"2025-09-19T22:52:29.737344","MEAN_MOTION":13.10375719,"ECCENTRICITY":0.00016176,"INCLINATION":87.8743,"RA_OF_ASC_NODE":90.1629,"ARG_OF_PERICENTER":84.5203,"MEAN_ANOMALY":275.6109,"EPHEMERIS_TYPE":0,"CLASSIFICATION_TYPE":"U","NORAD_CAT_ID":51635,"ELEMENT_SET_NO":999,"REV_AT_EPOCH":17393,"BSTAR":-0.00011867027,"MEAN_MOTION_DOT":-2.9e-7,"MEAN_MOTION_DDOT":0},{"OBJECT_NAME":"ONEWEB-0442","OBJECT_ID":"2022-012Q","EPOCH":"2025-09-19T22:44:50.223264","MEAN_MOTION":13.17649087,"ECCENTRICITY":0.00023417,"INCLINATION":87.905,"RA_OF_ASC_NODE":59.6382,"ARG_OF_PERICENTER":90.1813,"MEAN_ANOMALY":269.9587,"EPHEMERIS_TYPE":0,"CLASSIFICATION_TYPE":"U","NORAD_CAT_ID":51636,"ELEMENT_SET_NO":999,"REV_AT_EPOCH":17808,"BSTAR":-0.00017747036,"MEAN_MOTION_DOT":-5.6e-7,"MEAN_MOTION_DDOT":0},{"OBJECT_NAME":"ONEWEB-0443","OBJECT_ID":"2022-012R","EPOCH":"2025-09-19T23:12:46.315008","MEAN_MOTION":13.17647599,"ECCENTRICITY":0.00017792,"INCLINATION":87.9045,"RA_OF_ASC_NODE":59.6414,"ARG_OF_PERICENTER":80.3484,"MEAN_ANOMALY":279.7848,"EPHEMERIS_TYPE":0,"CLASSIFICATION_TYPE":"U","NORAD_CAT_ID":51637,"ELEMENT_SET_NO":999,"REV_AT_EPOCH":17813,"BSTAR":5.0266289e-5,"MEAN_MOTION_DOT":3.2e-7,"MEAN_MOTION_DDOT":0},{"OBJECT_NAME":"ONEWEB-0444","OBJECT_ID":"2022-012S","EPOCH":"2025-09-19T22:38:08.623968","MEAN_MOTION":13.10374321,"ECCENTRICITY":0.00015549,"INCLINATION":87.8738,"RA_OF_ASC_NODE":90.165,"ARG_OF_PERICENTER":83.8065,"MEAN_ANOMALY":276.324,"EPHEMERIS_TYPE":0,"CLASSIFICATION_TYPE":"U","NORAD_CAT_ID":51638,"ELEMENT_SET_NO":999,"REV_AT_EPOCH":17394,"BSTAR":-0.0015131551,"MEAN_MOTION_DOT":-5.16e-6,"MEAN_MOTION_DDOT":0},{"OBJECT_NAME":"ONEWEB-0445","OBJECT_ID":"2022-012T","EPOCH":"2025-09-19T23:09:15.096384","MEAN_MOTION":13.1037532,"ECCENTRICITY":0.00017957,"INCLINATION":87.8752,"RA_OF_ASC_NODE":90.1147,"ARG_OF_PERICENTER":91.1364,"MEAN_ANOMALY":268.9969,"EPHEMERIS_TYPE":0,"CLASSIFICATION_TYPE":"U","NORAD_CAT_ID":51639,"ELEMENT_SET_NO":999,"REV_AT_EPOCH":17395,"BSTAR":0.0013462117,"MEAN_MOTION_DOT":4.83e-6,"MEAN_MOTION_DDOT":0},{"OBJECT_NAME":"ONEWEB-0446","OBJECT_ID":"2022-012U","EPOCH":"2025-09-19T22:35:45.030624","MEAN_MOTION":13.10374195,"ECCENTRICITY":0.0001723,"INCLINATION":87.8738,"RA_OF_ASC_NODE":90.1807,"ARG_OF_PERICENTER":94.5858,"MEAN_ANOMALY":265.5466,"EPHEMERIS_TYPE":0,"CLASSIFICATION_TYPE":"U","NORAD_CAT_ID":51640,"ELEMENT_SET_NO":999,"REV_AT_EPOCH":17393,"BSTAR":-0.0015941893,"MEAN_MOTION_DOT":-5.44e-6,"MEAN_MOTION_DDOT":0},{"OBJECT_NAME":"ONEWEB-0448","OBJECT_ID":"2022-012V","EPOCH":"2025-09-19T22:42:55.151424","MEAN_MOTION":13.10374537,"ECCENTRICITY":0.00015883,"INCLINATION":87.8741,"RA_OF_ASC_NODE":90.1796,"ARG_OF_PERICENTER":85.7013,"MEAN_ANOMALY":274.4295,"EPHEMERIS_TYPE":0,"CLASSIFICATION_TYPE":"U","NORAD_CAT_ID":51641,"ELEMENT_SET_NO":999,"REV_AT_EPOCH":17390,"BSTAR":-0.0010336546,"MEAN_MOTION_DOT":-3.48e-6,"MEAN_MOTION_DDOT":0},{"OBJECT_NAME":"ONEWEB-0449","OBJECT_ID":"2022-012W","EPOCH":"2025-09-19T22:50:06.536256","MEAN_MOTION":13.10375632,"ECCENTRICITY":0.00020255,"INCLINATION":87.8738,"RA_OF_ASC_NODE":90.1492,"ARG_OF_PERICENTER":77.4682,"MEAN_ANOMALY":282.6672,"EPHEMERIS_TYPE":0,"CLASSIFICATION_TYPE":"U","NORAD_CAT_ID":51642,"ELEMENT_SET_NO":999,"REV_AT_EPOCH":17391,"BSTAR":-0.00038213949,"MEAN_MOTION_DOT":-1.21e-6,"MEAN_MOTION_DDOT":0}]
