ONEWEB-0422             
1 51626U 22012E   25262.97057515  .00000027  00000+0  35969-4 0  9997
2 51626  87.9059  59.5906 0000993  89.8142 270.3104 13.17647660178225
ONEWEB-0423             
1 51627U 22012F   25262.96382079  .00000025  00000+0  32060-4 0  9990
2 51627  87.9059  59.6011 0001660  88.5762 271.5560 13.17646762178119
ONEWEB-0425             
1 51628U 22012G   25262.95478601  .00000053  00000+0  11510-3 0  9994
2 51628  87.8742  90.1464 0001943  80.2498 279.8849 13.10375474173937
ONEWEB-0428             
1 51629U 22012H   25262.93484888 -.00000553  00000+0 -16198-2 0  9990
2 51629  87.8737  90.1717 0001479  88.6638 271.4659 13.10372186173894
ONEWEB-0431             
1 51630U 22012J   25262.98122159  .00000602  00000+0  16893-2 0  9992
2 51630  87.8741  90.1350 0001464 110.5363 249.5922 13.10372946173958
ONEWEB-0434             
1 51631U 22012K   25262.95811269  .00000201  00000+0  54068-3 0  9999
2 51631  87.8744  90.1811 0002156  74.5627 285.5738 13.10375520173939
ONEWEB-0435             
1 51632U 22012L   25262.96641580  .00000582  00000+0  16318-2 0  9995
2 51632  87.8739  90.1711 0001283  82.1520 277.9753 13.10373581173926
ONEWEB-0436             
1 51633U 22012M   25262.95538382  .00000076  00000+0  16311-3 0  9992
2 51633  87.9050  59.5828 0001480  96.8810 263.2490 13.17647051178097
ONEWEB-0438             
1 51634U 22012N   25262.94979972 -.00000220  00000+0 -66621-3 0  9998
2 51634  87.8741  90.1751 0001818  83.5837 276.5497 13.10374999173952
ONEWEB-0439             
1 51635U 22012P   25262.95312196 -.00000029  00000+0 -11867-3 0  9998
2 51635  87.8743  90.1629 0001617  84.5203 275.6109 13.10375719173933
ONEWEB-0442             
1 51636U 22012Q   25262.94780351 -.00000056  00000+0 -17747-3 0  9993
2 51636  87.9050  59.6382 0002341  90.1813 269.9587 13.17649087178083
ONEWEB-0443             
1 51637U 22012R   25262.96720272  .00000032  00000+0  50266-4 0  9998
2 51637  87.9045  59.6414 0001779  80.3484 279.7848 13.17647599178134
ONEWEB-0444             
1 51638U 22012S   25262.94315537 -.00000516  00000+0 -15132-2 0  9991
2 51638  87.8738  90.1650 0001554  83.8065 276.3240 13.10374321173945
ONEWEB-0445             
1 51639U 22012T   25262.96475806  .00000483  00000+0  13462-2 0  9995
2 51639  87.8752  90.1147 0001795  91.1364 268.9969 13.10375320173950
ONEWEB-0446             
1 51640U 22012U   25262.94149341 -.00000544  00000+0 -15942-2 0  9992
2 51640  87.8738  90.1807 0001723  94.5858 265.5466 13.10374195173937
ONEWEB-0448             
1 51641U 22012V   25262.94647166 -.00000348  00000+0 -10337-2 0  9996
2 51641  87.8741  90.1796 0001588  85.7013 274.4295 13.10374537173909
ONEWEB-0449             
1 51642U 22012W   25262.95146454 -.00000121  00000+0 -38214-3 0  9996
2 51642  87.8738  90.1492 0002025  77.4682 282.6672 13.10375632173914
